STARLETTE               
1 07646U 75010A   16138.48699133 -.00000151  00000-0 -57257-5 0  9998
2 07646  49.8234 240.1470 0205669 137.7177 223.9778 13.82300493 85110
LAGEOS 1                
1 08820U 76039A   16137.76621409  .00000018  00000-0  00000-0 0  9995
2 08820 109.8537 357.6001 0044460  10.4692  57.2260  6.38664852678220
AJISAI (EGS)            
1 16908U 86061A   16139.24304228 -.00000093  00000-0  31692-4 0  9998
2 16908  50.0099 308.9352 0011480 168.0811 246.0748 12.44483473 22261
LAGEOS 2                
1 22195U 92070B   16139.11546297 -.00000009  00000-0  00000+0 0  9991
2 22195  52.6623  73.7390 0137696  17.2865 325.8846  6.47293937557255
STELLA                  
1 22824U 93061B   16139.13056866 -.00000039  00000-0  25265-5 0  9990
2 22824  98.7642  87.8735 0007419 112.0746 308.9103 14.27363145179654
GRACE-1                 
1 27391U 02012A   16138.56171324  .00014626  00000-0  12532-3 0  9990
2 27391  88.9982  18.2492 0005302 182.7860 227.3051 15.69263146795224
GRACE-2                 
1 27392U 02012B   16138.68072171  .00014623  00000-0  12526-3 0  9994
2 27392  88.9991  18.3139 0005368 182.2104 177.9145 15.69269460795243
LARES                   
1 38077U 12006A   16139.04494271 -.00000022  00000-0  10000-3 0  9994
2 38077  69.4900 101.6758 0011209 273.2811  86.6928 12.54930814195191
